CCSDS_OEM_VERS = 2.0
CREATION_DATE  = 2024-06-14T19:20:58.186
ORIGINATOR     = NASA/JSC/FOD/TOPO

META_START
OBJECT_NAME          = ISS
OBJECT_ID            = 1998-067-A
CENTER_NAME          = Earth
REF_FRAME            = EME2000
TIME_SYSTEM          = UTC
START_TIME           = 2024-06-14T12:00:00.000
USEABLE_START_TIME   = 2024-06-14T12:00:00.000
USEABLE_STOP_TIME    = 2024-06-29T12:00:00.000
STOP_TIME            = 2024-06-29T12:00:00.000
META_STOP

COMMENT Source: This file was produced by the TOPO office within FOD at JSC.
COMMENT Units are in kg and m^2
COMMENT MASS=473796.41
COMMENT DRAG_AREA=1693.50
COMMENT DRAG_COEFF=2.25
COMMENT SOLAR_RAD_AREA=0.00
COMMENT SOLAR_RAD_COEFF=0.00
COMMENT Orbits start at the ascending node epoch
COMMENT ISS first asc. node: EPOCH = 2024-06-14T13:18:53.295 $ ORBIT = 1814 $ LAN(DEG) = -134.74521
COMMENT ISS last asc. node : EPOCH = 2024-06-29T10:50:08.262 $ ORBIT = 2045 $ LAN(DEG) = 173.99949
COMMENT Begin sequence of events
COMMENT TRAJECTORY EVENT SUMMARY:
COMMENT 
COMMENT |       EVENT        |       TIG        | ORB |   DV    |   HA    |   HP    |
COMMENT |                    |       GMT        |     |   M/S   |   KM    |   KM    |
COMMENT |                    |                  |     |  (F/S)  |  (NM)   |  (NM)   |
COMMENT =============================================================================
COMMENT  GMT167 Reboost        167:04:40:00.000             2.0     418.0     411.6
COMMENT                                                    (6.6)   (225.7)   (222.3)
COMMENT 
COMMENT  CFT_Undock            174:03:42:00.000             0.0     426.4     408.7
COMMENT                                                    (0.0)   (230.2)   (220.7)
COMMENT 
COMMENT =============================================================================
COMMENT End sequence of events
2024-06-27T08:03:00.000 3594.008776431600 -3090.404405228740 4854.624785923440 2.57118318676207 6.80364430228233 2.43067867456689
2024-06-27T08:07:00.000 4072.639745481580 -1364.807872542750 5253.490544341370 1.39321957620616 7.48826992662516 0.87308993348508
2024-06-27T08:11:00.000 4254.708207804520 460.205475511000 5268.713170497780 0.11491785178381 7.62722262587278 -0.74679268043874
2024-06-27T08:15:00.000 4127.201358381670 2251.756258404840 4899.488368780720 -1.17086219231096 7.21124119193307 -2.31108743705744
2024-06-27T08:19:00.000 3699.567972809470 3879.571077044410 4172.961035675820 -2.37093123379203 6.27114471921899 -3.70616858203542
2024-06-27T08:23:00.000 3003.002554213020 5225.374793250500 3142.225864626520 -3.39831421074806 4.87552621800163 -4.83068340374681
2024-06-27T08:27:00.000 2088.205519897970 6191.449824801190 1882.490019872580 -4.17844720655602 3.12611099959601 -5.60285107213454
2024-06-27T08:31:00.000 1021.714683066780 6707.773149695850 485.613256716390 -4.65474436475436 1.15056656832616 -5.96658373624119
2024-06-27T08:35:00.000 -118.952046252751 6737.153449179710 -946.627893561630 -4.79289163499816 -0.90689544968112 -5.89586813087912
2024-06-27T08:39:00.000 -1251.001218146010 6277.905354976350 -2310.040431013420 -4.58348594805631 -2.89651366327540 -5.39666392867674
2024-06-27T08:43:00.000 -2292.430054070750 5363.828488425060 -3505.647075034510 -4.04243905578993 -4.67415937031800 -4.50616079383044
2024-06-27T08:47:00.000 -3167.967254711100 4061.569868760420 -4446.857796800840 -3.20952482933484 -6.11189024818899 -3.28968002877388
2024-06-27T08:51:00.000 -3814.439520193950 2465.626719084770 -5065.632041460040 -2.14512116963537 -7.10687050266157 -1.83548258603653
2024-06-27T08:55:00.000 -4185.195568607720 691.471389439482 -5317.223546210300 -0.92570388617825 -7.58807603957852 -0.24826792488854
2024-06-27T08:59:00.000 -4253.340470947920 -1132.662718976610 -5183.265364811090 0.36150850240681 -7.52073084528151 1.35808208025897
2024-06-27T09:03:00.000 -4013.626220643650 -2874.785410954970 -4673.071987337090 1.62432524551119 -6.90850994419946 2.86803967359477
2024-06-27T09:07:00.000 -3482.920970676550 -4408.442950499940 -3823.108718876080 2.77167648988588 -5.79370842186812 4.17217190519377
2024-06-27T09:11:00.000 -2699.191703071880 -5621.777986639710 -2694.610510923900 3.71986009435023 -4.25513679723363 5.17474952928013
2024-06-27T09:15:00.000 -1718.976129116970 -6425.794674461970 -1369.399439088590 4.39884002443638 -2.40345605813113 5.80111269431745
2024-06-27T09:19:00.000 -613.411573997563 -6761.140124125480 55.948497760929 4.75782419593689 -0.37354936404150 6.00384251094970
2024-06-27T09:23:00.000 536.930214878576 -6602.770661639950 1477.183435210580 4.76957195295268 1.68536273775612 5.76692452679352
2024-06-27T09:27:00.000 1648.037773451740 -5962.024174394440 2790.185513566930 4.43288613733030 3.62136539442384 5.10749146721534
2024-06-27T09:31:00.000 2638.772980970650 -4885.803428417850 3898.814467730810 3.77272301027820 5.29195529288330 4.07442734173843
2024-06-27T09:35:00.000 3436.921971522370 -3452.968506485440 4722.082186259490 2.83794549274851 6.57498401254789 2.74423013961414
2024-06-27T09:39:00.000 3984.484323051270 -1768.351558308690 5200.078792000330 1.69737437192812 7.37746479551900 1.21492009477970
2024-06-27T09:43:00.000 4241.845888273330 45.083217750209 5298.256050731110 0.43438139902321 7.64211039247404 -0.40154979628956
2024-06-27T09:47:00.000 4190.524747944510 1855.265322299740 5009.779123248230 -0.85932150346557 7.35064608325410 -1.98754634469705
2024-06-27T09:51:00.000 3834.431482705370 3530.538847979150 4355.916072056700 -2.08992867903972 6.52479603044212 -3.42786615224728
2024-06-27T09:55:00.000 3199.574270751270 4949.153354364940 3384.480104646080 -3.16821662737327 5.22491801877200 -4.61784200872406
2024-06-27T09:59:00.000 2332.177118935400 6008.082020287270 2166.367977382370 -4.01595083955553 3.54575967715730 -5.47094720207455
2024-06-27T10:03:00.000 1295.341632936050 6630.524994883180 790.414401217542 -4.57160808258552 1.60982379939843 -5.92517814128146
2024-06-27T10:07:00.000 164.449140376650 6771.541669410130 -643.104115918981 -4.79504509281332 -0.44153698644713 -5.94782222313684
2024-06-27T10:11:00.000 -978.380615790062 6421.317814912280 -2029.856921228610 -4.67059270450958 -2.45886123958317 -5.53798702239495
2024-06-27T10:15:00.000 -2050.319618478040 5605.755656379160 -3269.119893916430 -4.20801648069958 -4.29581633600582 -4.72639720688844
2024-06-27T10:19:00.000 -2973.855070736650 4384.407036083900 -4271.097452527640 -3.44149149769324 -5.82003503800329 -3.57274121264965
2024-06-27T10:23:00.000 -3682.329045757720 2845.973952853280 -4963.332303499990 -2.42671387658603 -6.92234744756428 -2.16089020820977
2024-06-27T10:27:00.000 -4124.625285664120 1101.822726417350 -5295.782444487960 -1.23669296133002 -7.52406837674348 -0.59262594590593
2024-06-27T10:31:00.000 -4268.719245927370 -721.967710808537 -5244.278893171330 0.04339171082465 -7.58193024799977 1.01945352205995
2024-06-27T10:35:00.000 -4103.920193561160 -2493.484701512820 -4812.217457732340 1.32192621707209 -7.09085139909758 2.55952282337724
2024-06-27T10:39:00.000 -3641.696118447210 -4084.253528554080 -4030.410140842660 2.50688770209927 -6.08448451019052 3.91622064589621
2024-06-27T10:43:00.000 -2915.025803740750 -5378.390818752960 -2955.094350827870 3.51210916845870 -4.63365074137501 4.99028996302052
2024-06-27T10:47:00.000 -1976.234749790690 -6281.090722046100 -1664.130743204000 4.26354490104237 -2.84226618111047 5.70198237832953
2024-06-27T10:51:00.000 -893.376355750072 -6725.809963626950 -251.515088765190 4.70510051059831 -0.84058151575364 5.99756925364118
2024-06-27T10:55:00.000 254.689136068241 -6679.484540112410 1179.494911067940 4.80346283326960 1.22448301880318 5.85416931648054
2024-06-27T10:59:00.000 1384.142418254100 -6145.187088353640 2524.082989562550 4.55092214416806 3.20065947748551 5.28181839719439
2024-06-27T11:03:00.000 2412.484609311640 -5161.980021944430 3683.761582488030 3.96612590658262 4.94229755640826 4.32286403825093
2024-06-27T11:07:00.000 3264.715720235290 -3801.929150591810 4573.759264028970 3.09244824123033 6.32180228894305 3.04844578002639
2024-06-27T11:11:00.000 3878.859274278110 -2164.586353948890 5129.255130334920 1.99429929595164 7.23906328870259 1.55254665752195
2024-06-27T11:15:00.000 4210.426400413650 -369.529795748556 5310.013717060760 0.75207390393751 7.62824077947943 -0.05519756624548
2024-06-27T11:19:00.000 4235.549713477050 1452.439379339650 5103.191989025900 -0.54385060679458 7.46213266017741 -1.65757764786480
2024-06-27T11:23:00.000 3952.601274563100 3168.787496019840 4524.139534778790 -1.79958094213087 6.75350881461751 -3.13821679642575
2024-06-27T11:27:00.000 3382.273659803650 4654.770804685150 3615.232948551730 -2.92409388353883 5.55416971219975 -4.38959534275221
2024-06-27T11:31:00.000 2566.106034602930 5802.446356018550 2442.818559589210 -3.83575943578301 3.95154044911937 -5.32070533894192
2024-06-27T11:35:00.000 1563.484152887360 6528.542325727780 1092.407785898220 -4.46841942468946 2.06252447496257 -5.86385303294540
2024-06-27T11:39:00.000 447.312983394155 6780.550871066530 -337.566811914135 -4.77628168977074 0.02502911998689 -5.97976384751769
2024-06-27T11:43:00.000 -701.327785745035 6540.566525052730 -1742.992861757130 -4.73745893213782 -2.01235848460629 -5.66067542522051
2024-06-27T11:47:00.000 -1799.149241639640 5826.493795715190 -3021.741630833730 -4.35549440850501 -3.90169698937344 -4.93071781538158
2024-06-27T11:51:00.000 -2766.723794352370 4690.563047293700 -4081.107714386880 -3.65876769672868 -5.50661570242801 -3.84374215966161
2024-06-27T11:55:00.000 -3534.190403359940 3215.353730244540 -4844.462117162770 -2.69806649641618 -6.71206389269586 -2.47896058144238
2024-06-27T11:59:00.000 -4046.179435332150 1507.709017324540 -5256.631045634870 -1.54261637044889 -7.43196599265524 -0.93487373378129
2024-06-27T12:03:00.000 -4265.664679412920 -308.916060669504 -5287.715909717370 -0.27516361454144 -7.61470557817245 0.67761586240836
